#dP2022  7  8  0  0  0.00000000      96 __u+U ITR00 FIT  IAC
## 2217 432000.00000000   900.00000000 59768 0.0000000000000
+  114   C06C07C08C09C10C11C12C13C14C19C20C21C22C23C24C25C26
+        C27C28C29C30C32C33C34C35C36C37C38C39C40C41C42C43C44
+        C45C46E01E02E03E04E05E07E08E09E10E11E12E13E14E15E18
+        E19E21E24E25E26E27E30E31E33E34E36G01G02G03G04G05G06
+        G07G08G09G10G11G12G13G14G15G16G17G18G19G20G21G22G23
+        G24G25G26G27G28G29G30G31G32J02R01R02R03R04R05R07R08
+        R09R11R12R13R14R15R17R18R19R20R21R24  0  0  0  0  0
++         8  8  9  7  7  8  8  9  6  7  5  7  7  7  7  7  7
++         6  5  7  7  6  6  6  8  7  6  7  8  0  6  6  7  5
++         7  7  7  7  7  6  6  6  6  6  6  5  5  6  6  5  6
++         6  5  6  5  7  6  5  5  6  5  6  6  6  6  4  7  5
++         6  5  6  5  6  6  7  5  6  5  6  6  7  6  5  5  6
++         5  6  5  6  6  5  5  7  5  6  8  7  7  7  6  7  6
++         7  7  9  6  6  6  6  7  8  7  7  6  0  0  0  0  0
%c M  cc GPS ccc cccc cccc cccc cccc ccccc ccccc ccccc ccccc
%c cc cc ccc ccc cccc cccc cccc cccc ccccc ccccc ccccc ccccc
%f  0.0000000  0.000000000  0.00000000000  0.000000000000000
%f  0.0000000  0.000000000  0.00000000000  0.000000000000000
%i    0    0    0    0      0      0      0      0         0
%i    0    0    0    0      0      0      0      0         0
/* INFORMATION & ANALYSIS CENTER (IAC)      ULTRA-RAPID DATA
/* S/V CLOCKS ARE ALIGNED TO GNSS TIME                      
/* G:C1WC2W R:C1PC2P E:C1XC5X C:C2IC6I J:C1CC2S             
/* PCV:IGS14_2215 OL/AL:FES2004  NONE     YN ORB:CoN CLK:CoN
*  2022 07 08  8 45  0.00000000
PC06 -14979.106204  38821.205140  -7483.458327    349.531093
PC07  -1103.576624  33303.086586 -25701.824741   -401.036235
PC08 -11450.191648  20615.224485  34927.176979    395.603064
PC09 -11234.307918  38238.132862 -14130.758495   -934.588838
PC10   4788.887428  35280.157927 -21916.281350    120.290672
PC11 -14245.171393  23596.800951  -4180.977402    461.590807
PC12 -18116.832835   9394.782029 -18995.875437   -582.015685
PC13  -5818.257848  22495.177619  35272.201528     17.894576
PC14  -6661.897421  16185.999737  21738.991677    532.394648
PC19  -1999.171225 -22137.666231 -16863.044352   -164.590674
PC20  12720.701804  -9316.152832 -23011.895629   -964.068683
PC21 -20787.876304 -10072.799818  15692.413068   -636.116647
PC22 -16156.346088 -22764.016285   -710.657578   -962.875308
PC23  13574.632459  13322.362526 -20408.128861   -942.399346
PC24 -24660.773240   9269.746839  -9171.451698   -968.064791
PC25  -6454.990781  16470.491237 -21581.440588   -710.681116
PC26 -27004.048985  -1392.230015   6821.316186    712.556944
PC27  16766.012727    406.407492  22277.613496    750.948060
PC28   6709.812795  18435.820213  19840.735159     87.535788
PC29   6907.178917 -26525.840391  -5252.882946    578.830594
PC30  16926.040799 -18251.362858  12585.398253    500.846301
PC32  20854.153213   9955.179108 -15618.978931   -973.271270
PC33   1981.104405  22074.710709  16947.643207   -115.450449
PC34 -16700.787439  19065.067357 -11714.680014   -363.575480
PC35  -6612.852502 -19124.844456 -19216.646736    356.130787
PC36   7466.826034 -16277.474960  21432.317075   -973.438489
PC37  26623.248392   2802.087683  -7893.862605   -914.685330
PC38 -19506.596630  21717.380286  30399.272937      8.636638
PC39 -18109.128310  38160.597277   1399.711264     -0.026811
PC40      0.000000      0.000000      0.000000 999999.999999
PC41  15909.204902  22890.643628   1272.663485    -63.303461
PC42 -13558.666674   8288.542841  22982.439856   -954.782632
PC43  -7503.488770  26505.074499   4514.559697      1.723348
PC44 -16862.214777    -58.275052 -22255.855826    717.237024
PC45 -13873.407890 -13096.589960  20368.287097    803.483842
PC46  23776.115308 -10106.269737  10603.412931   -420.509016
PE01  20175.867543  17945.095127 -12124.058760   -511.078755
PE02 -20297.603313 -17895.484587  11986.203960    310.587855
PE03 -11947.827115 -23744.268921  13042.976892   -576.821617
PE04  17255.339342   4790.513100 -23558.253032  -1066.817287
PE05    503.588529 -29107.523947  -5365.439624   -164.962969
PE07 -12483.273075  17458.196780  20388.291634   -685.587534
PE08 -17142.492467  -4547.639015  23705.029780   -559.977250
PE09  12283.447521 -17531.571029 -20444.437838   -580.263269
PE10  25546.070172 -11861.547660   9098.621898   -524.888872
PE11  23247.563846 -18276.038091  -1177.009933   3084.831558
PE12  23754.026712  -3729.946034  17242.395952    -51.023955
PE13 -23527.153172  17961.086709    417.958101    429.693597
PE14 -17978.937875 -14812.364033 -22565.267788  -1785.292711
PE15 -23659.986216   3691.855754 -17404.501337    734.576863
PE18  14740.516284   4531.515868  18071.488215  -1239.000914
PE19  10528.857824  25381.576538 -10993.516348  -5153.365623
PE21   2136.006273  18214.614449 -23230.493545   -744.685196
PE24  19336.015211  -7282.804165  21194.265008   -713.217449
PE25  -1816.391408 -18144.745845  23325.517247   -580.328141
PE26  -8685.490598  21487.757250  18404.837856  -1352.364924
PE27 -18349.548657   8125.288304 -21749.745592   -339.919598
PE30 -27877.219187  -7405.305955  -6630.347542   -655.138463
PE31  27855.481871   6639.172341   7505.316004   -499.572846
PE33   9835.271629  12681.041006  24867.382869   -454.913572
PE34 -10040.830846 -12538.549814 -24876.091636   -526.028226
PE36   9575.203848 -21574.852212 -17863.804090   -399.153799
PG01   6257.183519 -17822.652880 -18830.001210    325.620152
PG02 -21361.384910  15916.078898   1234.479889   -651.759779
PG03  -3518.740989 -17486.101526 -19833.549861   -301.394180
PG04   1513.044916 -26443.672044  -1112.154871   -148.418730
PG05 -11434.406321  10790.125236  21255.849257    -88.361874
PG06 -23183.247500   3986.476622 -12351.076522    375.966198
PG07 -10663.699204 -11774.828594  21739.329393    319.988567
PG08   5661.335891 -24082.850476   9129.822308    -75.337467
PG09  -6971.256914 -23971.873123   8950.899345   -321.156232
PG10  23993.621905  11390.378973  -2800.609923   -484.099819
PG11 -23528.878798  12290.195698    220.988547    -11.284550
PG12   -791.916155  16730.631743 -20905.647555   -243.122654
PG13 -12889.613906  17140.098899  15395.523067    344.299278
PG14 -23203.287452 -12920.839312  -1741.910196   -111.989944
PG15  -3050.960592  24646.930205   8547.157227    -47.127883
PG16  16955.837993  -4745.490458  19750.155952   -514.072697
PG17 -12902.663475 -10922.674731 -20038.942165    634.343477
PG18   9979.027106  11458.228359  21783.848238    119.657462
PG19 -14911.810510  -1366.396187 -22191.036392    180.898351
PG20 -21098.362921   4054.038980  15469.495386    504.974462
PG21  14462.205112 -18941.965034 -10320.901299    161.177289
PG22  15086.856860  -2019.668956 -21334.610820    288.745098
PG23  19719.003010  16264.091533   7418.348759    -31.949797
PG24  -8809.538895  19910.108302 -15230.861094    202.369034
PG25  13380.133720  18673.804527 -13848.086839    346.644753
PG26  23418.852462   1216.043058  12678.343901    216.986337
PG27  12498.555036 -13922.954092  18475.719499    220.087389
PG28 -23018.267214  -7710.119281  -9986.712425    332.155461
PG29   4815.998561  24209.793289   9652.003472   -531.553775
PG30 -19337.906162  -4245.201950  17912.315606   -533.489124
PG31  24311.170159  -5366.418398 -10023.193664   -184.910514
PG32  14634.988017   7711.137570 -20669.685006   -170.766618
PJ02 -28208.959517  14808.762179 -23050.821496     -1.447493
PR01 -14474.705252 -19151.008747   8650.947030     11.138997
PR02 -12687.706297  -2627.284299  22004.189145    523.528604
PR03  -3875.020284  14505.421256  20682.500410     59.825712
PR04   6938.551355  23227.725480   7980.570939    149.862543
PR05  13881.604508  19356.002578  -9145.825152     95.877911
PR07   3414.218845 -15033.025167 -20268.599146     37.539065
PR08  -7125.279798 -23218.324831  -7700.286368    -66.099326
PR09  25077.587145   -860.894880   4374.852172     64.631049
PR11  -2800.345531 -11004.511127  22856.318202     33.920684
PR12 -20518.826329  -7665.732472  13091.221252     19.202250
PR13 -25334.147129      0.720127  -3000.066540    -24.395062
PR14 -15008.679579   8220.237030 -18908.018002     24.955954
PR15   3671.639822  11141.036340 -22625.510426     94.782114
PR17 -15132.301212  20410.689159  -1986.343155    541.632396
PR18  -6386.024881  20242.862621  14188.905779    122.874205
PR19   4703.841821  10590.965368  22714.469575   -195.527467
PR20  15981.624584  -7982.073601  18190.363972    -74.180773
PR21  14726.761688 -20843.440456    407.849805   -315.699762
PR24 -16248.393007   8809.111038 -17562.049151    102.496728
EOF
